GLOBALSTAR M094         
1 39074U 13005C   24302.56343920 -.00000072  00000+0  18007-3 0  9993
2 39074  51.9936 167.3432 0001167  90.0879 270.0121 12.62264376543129
GLOBALSTAR M096         
1 39075U 13005D   24302.49740608 -.00000054  00000+0  28029-3 0  9995
2 39075  52.0066 215.8770 0001034  75.9165 284.1817 12.62263517542036
GLOBALSTAR M078         
1 39076U 13005E   24302.47060713 -.00000076  00000+0  15683-3 0  9992
2 39076  51.9876 300.7815 0001297  39.7956 320.3006 12.62276756540653
GLOBALSTAR M095         
1 39077U 13005F   24302.33911457 -.00000071  00000+0  18292-3 0  9992
2 39077  51.9801 298.4968 0001008  65.2940 294.8032 12.62266987540492
GLOBALSTAR M087         
1 52888U 22064A   24302.56297334 -.00000081  00000+0  90276-4 0  9992
2 52888  51.9745 103.2975 0009036 348.2529  11.8159 13.37591205115370
